0453P         2023 03  3.4282  2.279223  0.583174   70.9094   42.8897   27.0572  20250917  14.0  4.0  453P/WISE-Lemmon                                         MPEC 2023-RF3
0454P         2022 07 26.6988  2.689815  0.361370   20.2104   54.5864   19.8082  20250917  14.0  4.0  454P/PANSTARRS                                           MPEC 2023-CD7
0455P         2023 02 24.8321  2.193795  0.304350  237.5394  146.1777   14.1342  20250917  17.0  4.0  455P/PANSTARRS                                           MPEC 2022-Y14
0456P         2025 04 14.8055  2.802223  0.115736  232.9840  243.1398   16.9649  20250917  13.5  4.0  456P/PANSTARRS                                           MPC182892
0457P         2024 08 20.0000  2.332026  0.118343  104.3018  175.9637    5.2258  20250917  15.5  4.0  457P/Lemmon-PANSTARRS                                    MPEC 2025-A40
0458P         2022 10 30.8900  2.634932  0.317268  104.9528    1.5545   13.6218  20250917  14.0  4.0  458P/Jahn                                                MPEC 2023-HD1
0459P         2023 02 21.7611  1.367860  0.577879  205.2306  256.9872    7.1735  20250917  15.5  4.0  459P/Catalina                                            MPEC 2024-N80
0460P         2026 09 21.6163  1.016422  0.664260  351.9322  180.5173   18.9003  20250917  21.0  4.0  460P/PANSTARRS                                           MPEC 2023-G14
0461P         2027 05  3.0867  1.353717  0.569500  174.8294  194.3751   18.3972  20250917  18.5  4.0  461P/WISE                                                MPEC 2024-GJ3
0462P         2022 07 31.9286  2.047877  0.578617    4.1861  322.6448    7.0517  20250917  17.0  4.0  462P/LONEOS-PANSTARRS                                    MPEC 2024-BE0
0463P         2023 03 29.9267  0.517642  0.825947  216.3408  283.2188   29.2966  20250917  18.0  4.0  463P/NEOWISE                                             MPEC 2024-GJ3
0464P         2023 02 27.2734  3.369086  0.280641  267.5032  309.5789   21.6739  20250917  10.5  4.0  464P/PANSTARRS                                           MPEC 2024-Q20
0465P         2023 05  8.8024  2.323959  0.613062  140.9748  217.9437   25.8617  20250917  12.5  4.0  465P/Hill                                                MPEC 2024-NE4
0466P         2023 05 14.7612  2.060623  0.485999  198.1752  116.8856   13.6957  20250917  14.0  4.0  466P/PANSTARRS                                           MPEC 2024-JU4
0467P         2022 11 24.9487  5.508627  0.054358  267.3595   43.2623    2.4794  20250917   9.0  4.0  467P/LINEAR-Grauer                                       MPEC 2025-A40
0468P         2023 11 21.0121  3.950463  0.444850  322.5693  356.1278   50.4536  20250917  11.5  4.0  468P/SidingSpring                                        MPEC 2024-O39
0469P         2025 12  8.3879  3.005007  0.308082   43.4915  178.9667   20.1716  20250917  13.5  4.0  469P/PANSTARRS                                           MPEC 2025-A40
0470P         2023 12 16.6145  2.725390  0.389306  151.6685  246.1643    8.8439  20250917  15.5  4.0  470P/PANSTARRS                                           MPC182892
0471P         2023 12 19.7494  2.119112  0.627634   94.7592  283.3125    4.7970  20250917  12.0  4.0  471P/LINEAR-Lemmon                                       MPC182892
0472P         2024 07 13.8930  3.386834  0.564176  218.8210  205.8247   10.8252  20250917  10.5  4.0  472P/NEAT-LINEAR                                         MPC185666
0473P         2024 02 26.2316  1.406571  0.823592   42.9421   22.1909   56.8914  20250917  13.5  4.0  473P/NEAT                                                MPEC 2024-MB8
0474P         2023 07 15.6179  2.542166  0.187985   11.2679   26.7512    1.0969  20250917  15.5  4.0  474P/Hogan                                               MPEC 2024-B74
0475P         2024 06  1.6950  4.077338  0.442913   40.4147  147.3561   14.5238  20250917  11.0  4.0  475P/Spacewatch-LINEAR                                   MPC185666
0476P         2024 10 16.4812  3.123522  0.345814   46.7380   57.0487   19.0053  20250917  12.5  4.0  476P/PANSTARRS                                           MPC184421
0477P         2023 12 26.4907  1.748355  0.417555  305.8669   59.1421    8.9138  20250917  14.5  4.0  477P/PANSTARRS                                           MPEC 2024-GJ3
0478P         2024 05  2.2142  2.394000  0.343790   13.2552  127.2605   12.5249  20250917  13.5  4.0  478P/ATLAS                                               MPEC 2024-L77
0479P         2024 05  5.2785  1.242946  0.778939  263.4987  295.8329   15.3999  20250917  15.0  4.0  479P/Elenin                                              MPEC 2024-PC5
0480P         2023 04 23.8753  3.475626  0.246289  214.4430  229.9828   13.7162  20250917  12.0  4.0  480P/PANSTARRS                                           MPC182893
0481P         2023 07  9.3677  3.074135  0.343449  356.8237   93.5497    6.0827  20250917  13.5  4.0  481P/Lemmon-PANSTARRS                                    MPEC 2025-A40
0482P         2023 06  2.2165  1.907208  0.492370  339.7359  126.0740   24.4882  20250917  13.5  4.0  482P/PANSTARRS                                           MPEC 2024-JU4
0483P      a  2027 11 11.6483  2.486325  0.221910   49.3782  199.1200   14.1770  20250917  13.5  4.0  483P-A/PANSTARRS                                         MPC186638
0483P      b  2027 11 11.4128  2.486449  0.221852   49.3689  199.1191   14.1778  20250917  17.0  4.0  483P-B/PANSTARRS                                         MPC185666
0484P         2028 03 10.5549  2.129833  0.433041  240.8121  265.3761   14.4742  20250917  16.0  4.0  484P/Spacewatch                                          MPEC 2024-DD5
0485P         2023 08 25.3279  3.993371  0.417193  196.1205  261.6442   10.0161  20250917  13.0  4.0  485P/Sheppard-Tholen                                     MPEC 2024-JU4
0486P         2025 04  3.8349  2.308964  0.363455   93.9425  219.0231    2.2096  20250917  14.5  4.0  486P/Leonard                                             MPEC 2025-S35
0487P         2024 10 20.5737  1.814728  0.648395    0.8406   49.2010   39.3662  20250917  13.5  4.0  487P/SidingSpring                                        MPC185666
0488P         2024 05 19.8351  1.680450  0.551430    1.9637  323.8005   11.3952  20250917  16.5  4.0  488P/NEAT-PANSTARRS                                      MPEC 2024-UA9
0489P         2025 12  4.3131  1.561321  0.647221  109.4186   20.6044    4.0259  20250917  15.5  4.0  489P/Denning                                             MPEC 2024-Q14
0490P         2024 09 28.1503  1.069494  0.647074  332.5655  307.5937   12.2668  20250917  21.0  4.0  490P/ATLAS                                               MPEC 2024-YC7
0491P         2024 09  5.8745  3.716213  0.258676  298.8607  311.6835    9.3667  20250917   9.5  4.0  491P/Spacewatch-PANSTARRS                                MPEC 2025-S35
0492P         2024 07 20.4251  1.782012  0.690566   40.9819   11.3047   11.4012  20250917  15.0  4.0  492P/LINEAR                                              MPC185666
0493P         2026 01 14.0871  3.823003  0.466928   83.2114    1.0976   24.1097  20250917  12.0  2.0  493P/LONEOS                                              MPEC 2025-S35
0494P         2024 05 30.9724  2.440732  0.356756   48.8834  245.0434    7.7899  20250917  16.0  4.0  494P/PANSTARRS                                           MPEC 2024-RQ6
0495P         2025 10 22.3264  3.459915  0.272935  141.3321  291.6149   26.3558  20250917  11.5  4.0  495P/Christensen                                         MPEC 2025-A40
0496P         2025 03 10.2762  1.621073  0.734202   42.2473   63.5860   14.8144  20250917  14.0  4.0  496P/Hill                                                MPEC 2025-R69
0497P         2025 02 15.2719  2.074878  0.630321   32.3941   40.3644   10.4368  20250917  17.5  4.0  497P/Spacewatch-PANSTARRS                                MPC184421
0498P         2024 12 18.9134  1.964411  0.572284  179.0845  279.2299   14.4827  20250917  14.7  4.0  498P/LINEAR                                              MPC184421
0499P         2025 03  4.3965  0.931065  0.691480    2.5618  139.3064   24.5827  20250917  18.5  4.0  499P/Catalina                                            MPEC 2025-R69
0500P         2025 03 31.9633  2.131864  0.375908   46.6960  111.5271    2.3015  20250917  16.0  4.0  500P/PANSTARRS                                           MPC185667
0501P         2024 04 14.3108  0.671724  0.698501   53.6883  139.7820   10.0472  20250917  21.5  4.0  501P/Rankin                                              MPC182882
0502P         2025 08  5.0332  4.229494  0.471074   37.7344  264.4846   11.3996  20250917   8.5  4.0  502P/NEAT                                                MPEC 2025-S35
0503P         2025 11  5.5577  1.897362  0.481313   17.9471  268.5819   10.5749  20250917  15.0  4.0  503P/PANSTARRS                                           MPC185667
0504P         2025 04  9.0436  2.224088  0.406046  308.5287  221.1201    8.8067  20250917  14.3  4.0  504P                                                     MPC186639
0505P         2026 01 17.6899  2.835082  0.310638  143.9598  111.9423   11.3882  20250917  14.9  4.0  505P/Palomar                                             MPC184407
0506P         2023 08 26.6706  2.889022  0.482623  354.5234  325.6426   13.6530  20250917  12.7  4.0  506P                                                     MPC186639
0507P         2022 12  1.1558  2.681160  0.568705  107.7720  233.1727   17.0972  20250917  12.6  4.0  507P/Lemmon                                              MPC184407
0508P         2025 07 11.2519  1.539306  0.569419  338.8794  268.8302   31.7335  20250917  16.5  4.0  508P/McNaught                                            MPEC 2025-R69
0509P         2026 03 19.9550  3.692798  0.474863  180.1202  275.2071    8.6043  20250917  10.0  4.0  509P/Catalina                                            MPEC 2025-R69
